NORAD_CAT_ID,OBJECT_NAME,OBJECT_TYPE,EPOCH,MEAN_MOTION,ECCENTRICITY,INCLINATION,RA_OF_ASC_NODE,ARG_OF_PERICENTER,MEAN_ANOMALY,BSTAR,MEAN_MOTION_DOT,MEAN_MOTION_DDOT,TLE_LINE0,TLE_LINE1,TLE_LINE2,SEMIMAJOR_AXIS,PERIOD,APOGEE,PERIGEE,DECAYED
55273.0,STARLINK-5291,PAYLOAD,2023-11-05 22:55:27,14.988857,0.0002768,70.001,39.6008,270.2727,89.8115,0.0038302,0.00046579,0.0,0 STARLINK-5291,1 55273U 23010E   23309.95518202  .00046579  00000-0  38302-2 0  9996,2 55273  70.0010  39.6008 0002768 270.2727  89.8115 14.98885700 44435,6948.475,96.071,572.263,568.417,0.0
55273.0,STARLINK-5291,PAYLOAD,2023-11-06 11:44:11,14.98945338,0.0002286,70.0025,38.2563,269.745,90.3447,0.0035187,0.00042826,0.0,0 STARLINK-5291,1 55273U 23010E   23310.48902631  .00042826  00000-0  35187-2 0  9998,2 55273  70.0025  38.2563 0002286 269.7450  90.3447 14.98945338 44511,6948.291,96.068,571.744,568.567,0.0
55273.0,STARLINK-5291,PAYLOAD,2023-11-06 13:20:21,14.98904735,0.0002463,70.0012,38.0853,261.2322,98.8558,0.0025682,0.00031147,0.0,0 STARLINK-5291,1 55273U 23010E   23310.55580634  .00031147  00000-0  25682-2 0  9994,2 55273  70.0012  38.0853 0002463 261.2322  98.8558 14.98904735 44847,6948.416,96.07,571.993,568.57,0.0
55273.0,STARLINK-5291,PAYLOAD,2023-11-06 14:56:26,14.98917834,0.0002298,70.0012,37.9166,267.354,92.7356,0.0024949,0.00030262,0.0,0 STARLINK-5291,1 55273U 23010E   23310.62253299  .00030262  00000-0  24949-2 0  9998,2 55273  70.0012  37.9166 0002298 267.3540  92.7356 14.98917834 44536,6948.376,96.069,571.837,568.644,0.0
55273.0,STARLINK-5291,PAYLOAD,2023-11-06 22:56:53,14.99001453,0.0003362,70.0022,37.0743,269.2211,90.8563,0.00063347,7.606e-05,0.0,0 STARLINK-5291,1 55273U 23010E   23310.95617430  .00007606  00000-0  63347-3 0  9997,2 55273  70.0022  37.0743 0003362 269.2211  90.8563 14.99001453 44584,6948.117,96.064,572.318,567.646,0.0
55273.0,STARLINK-5291,PAYLOAD,2023-11-07 11:45:28,14.99132659,0.0003034,70.0,35.7284,266.0251,94.0561,-3.6478e-06,-1.38e-06,0.0,0 STARLINK-5291,1 55273U 23010E   23311.48991656 -.00000138  00000-0 -36478-5 0  9993,2 55273  70.0000  35.7284 0003034 266.0251  94.0561 14.99132659 44666,6947.712,96.056,571.685,567.469,0.0
55273.0,STARLINK-5291,PAYLOAD,2023-11-07 13:21:33,14.99137454,0.0002772,70.0005,35.5588,264.8773,95.207,-7.3828e-05,-9.93e-06,0.0,0 STARLINK-5291,1 55273U 23010E   23311.55663986 -.00000993  00000-0 -73828-4 0  9991,2 55273  70.0005  35.5588 0002772 264.8773  95.2070 14.99137454 44991,6947.697,96.055,571.488,567.636,0.0
55273.0,STARLINK-5291,PAYLOAD,2023-11-07 22:58:02,14.99145263,0.0002713,70.0012,34.5496,267.9198,92.1651,9.1856e-05,1.026e-05,0.0,0 STARLINK-5291,1 55273U 23010E   23311.95697618  .00001026  00000-0  91856-4 0  9991,2 55273  70.0012  34.5496 0002713 267.9198  92.1651 14.99145263 44736,6947.673,96.055,571.423,567.653,0.0
55273.0,STARLINK-5291,PAYLOAD,2023-11-08 11:46:40,14.99163901,0.0002529,70.0021,33.203,254.3166,105.7715,0.00010215,1.152e-05,0.0,0 STARLINK-5291,1 55273U 23010E   23312.49075146  .00001152  00000-0  10215-3 0  9996,2 55273  70.0021  33.2030 0002529 254.3166 105.7715 14.99163901 44816,6947.615,96.054,571.237,567.723,0.0
55273.0,STARLINK-5291,PAYLOAD,2023-11-08 13:22:45,14.99165708,0.0002628,70.002,33.0347,256.2189,103.8678,0.00012561,1.438e-05,0.0,0 STARLINK-5291,1 55273U 23010E   23312.55747265  .00001438  00000-0  12561-3 0  9994,2 55273  70.0020  33.0347 0002628 256.2189 103.8678 14.99165708 45141,6947.61,96.053,571.301,567.649,0.0
55273.0,STARLINK-5291,PAYLOAD,2023-11-08 14:58:50,14.99167189,0.0002735,70.0016,32.866,260.0184,100.0667,0.00014054,1.62e-05,0.0,0 STARLINK-5291,1 55273U 23010E   23312.62419437  .00001620  00000-0  14054-3 0  9991,2 55273  70.0016  32.8660 0002735 260.0184 100.0667 14.99167189 45151,6947.605,96.053,571.37,567.57,0.0
55273.0,STARLINK-5291,PAYLOAD,2023-11-08 22:59:17,14.9912036,0.0002811,70.0021,32.0236,270.4064,89.6773,0.0004581,5.49e-05,0.0,0 STARLINK-5291,1 55273U 23010E   23312.95783618  .00005490  00000-0  45810-3 0  9995,2 55273  70.0021  32.0236 0002811 270.4064  89.6773 14.99120360 44884,6947.75,96.056,571.568,567.662,0.0
55273.0,STARLINK-5291,PAYLOAD,2023-11-09 13:24:02,14.99137093,0.0002715,70.0017,30.5086,252.2009,107.8854,-1.4934e-05,-2.76e-06,0.0,0 STARLINK-5291,1 55273U 23010E   23313.55835959 -.00000276  00000-0 -14934-4 0  9991,2 55273  70.0017  30.5086 0002715 252.2009 107.8854 14.99137093 45295,6947.698,96.055,571.449,567.677,0.0
55273.0,STARLINK-5291,PAYLOAD,2023-11-09 15:00:07,14.99137207,0.000269,70.0022,30.3411,246.6899,113.3978,-1.8273e-05,-3.16e-06,0.0,0 STARLINK-5291,1 55273U 23010E   23313.62508350 -.00000316  00000-0 -18273-4 0  9996,2 55273  70.0022  30.3411 0002690 246.6899 113.3978 14.99137207 45305,6947.698,96.055,571.432,567.694,0.0
55273.0,STARLINK-5291,PAYLOAD,2023-11-10 11:49:09,14.99160678,0.0003022,70.0005,28.1488,265.7154,94.366,-0.00013384,-1.725e-05,0.0,0 STARLINK-5291,1 55273U 23010E   23314.49247652 -.00001725  00000-0 -13384-3 0  9999,2 55273  70.0005  28.1488 0003022 265.7154  94.3660 14.99160678 45114,6947.625,96.054,571.59,567.391,0.0
55273.0,STARLINK-5291,PAYLOAD,2023-11-10 13:25:14,14.99160708,0.000301,70.0006,27.9806,264.143,95.9387,-0.00013859,-1.783e-05,0.0,0 STARLINK-5291,1 55273U 23010E   23314.55919955 -.00001783  00000-0 -13859-3 0  9999,2 55273  70.0006  27.9806 0003010 264.1430  95.9387 14.99160708 45446,6947.625,96.054,571.581,567.399,0.0
55273.0,STARLINK-5291,PAYLOAD,2023-11-10 15:01:19,14.99161578,0.0003048,70.0003,27.8122,265.6374,94.4437,-0.00012107,-1.569e-05,0.0,0 STARLINK-5291,1 55273U 23010E   23314.62592171 -.00001569  00000-0 -12107-3 0  9991,2 55273  70.0003  27.8122 0003048 265.6374  94.4437 14.99161578 45454,6947.622,96.054,571.605,567.37,0.0
55273.0,STARLINK-5291,PAYLOAD,2023-11-11 11:50:24,14.99139551,0.0002827,70.0017,25.6241,253.485,106.5999,3.4655e-05,3.29e-06,0.0,0 STARLINK-5291,1 55273U 23010E   23315.49333828  .00000329  00000-0  34655-4 0  9993,2 55273  70.0017  25.6241 0002827 253.4850 106.5999 14.99139551 45268,6947.691,96.055,571.52,567.591,0.0
55273.0,STARLINK-5291,PAYLOAD,2023-11-11 13:26:31,14.99117109,0.0003088,70.0001,25.454,261.3683,98.7127,-0.00023015,-2.895e-05,0.0,0 STARLINK-5291,1 55273U 23010E   23315.56008290 -.00002895  00000-0 -23015-3 0  9992,2 55273  70.0001  25.4540 0003088 261.3683  98.7127 14.99117109 45599,6947.76,96.057,571.77,567.479,0.0
55273.0,STARLINK-5291,PAYLOAD,2023-11-11 15:02:39,14.9907238,0.0002672,70.0001,25.2859,275.784,84.3015,-0.00070885,-8.705e-05,0.0,0 STARLINK-5291,1 55273U 23010E   23315.62684982 -.00008705  00000-0 -70885-3 0  9990,2 55273  70.0001  25.2859 0002672 275.7840  84.3015 14.99072380 45286,6947.898,96.059,571.62,567.907,0.0
55273.0,STARLINK-5291,PAYLOAD,2023-11-11 21:27:07,14.98988272,0.0002615,70.001,24.6126,270.1108,89.9751,-0.0015941,-0.00019387,0.0,0 STARLINK-5291,1 55273U 23010E   23315.89383850 -.00019387  00000-0 -15941-2 0  9998,2 55273  70.0010  24.6126 0002615 270.1108  89.9751 14.98988272 45642,6948.158,96.065,571.84,568.206,0.0
55273.0,STARLINK-5291,PAYLOAD,2023-11-12 07:04:01,14.98737821,0.0004738,70.0008,23.603,294.4172,65.6493,-0.00411,-0.00049315,0.0,0 STARLINK-5291,1 55273U 23010E   23316.29446465 -.00049315  00000-0 -41100-2 0  9995,2 55273  70.0008  23.6030 0004738 294.4172  65.6493 14.98737821 45387,6948.932,96.081,574.089,567.505,0.0
55273.0,STARLINK-5291,PAYLOAD,2023-11-12 13:28:31,14.98679147,0.0002845,70.0005,22.928,262.8599,97.2237,-0.004479,-0.00053611,0.0,0 STARLINK-5291,1 55273U 23010E   23316.56147396 -.00053611  00000-0 -44790-2 0  9998,2 55273  70.0005  22.9280 0002845 262.8599  97.2237 14.98679147 45745,6949.113,96.085,572.955,569.001,0.0
55273.0,STARLINK-5291,PAYLOAD,2023-11-12 15:04:38,14.98672674,0.0002889,70.0006,22.7605,267.2884,92.7945,-0.0044659,-0.00053447,0.0,0 STARLINK-5291,1 55273U 23010E   23316.62822060 -.00053447  00000-0 -44659-2 0  9994,2 55273  70.0006  22.7605 0002889 267.2884  92.7945 14.98672674 45439,6949.133,96.085,573.006,568.991,0.0
55273.0,STARLINK-5291,PAYLOAD,2023-11-13 11:54:09,14.98602648,0.0002882,70.0004,20.5704,265.6828,94.4002,-0.0040333,-0.00048227,0.0,0 STARLINK-5291,1 55273U 23010E   23317.49594690 -.00048227  00000-0 -40333-2 0  9990,2 55273  70.0004  20.5704 0002882 265.6828  94.4002 14.98602648 45567,6949.35,96.09,573.218,569.212,0.0
55273.0,STARLINK-5291,PAYLOAD,2023-11-13 13:30:16,14.98598882,0.0002957,70.0004,20.4035,268.1044,91.9776,-0.0039858,-0.00047659,0.0,0 STARLINK-5291,1 55273U 23010E   23317.56269669 -.00047659  00000-0 -39858-2 0  9991,2 55273  70.0004  20.4035 0002957 268.1044  91.9776 14.98598882 45894,6949.362,96.09,573.281,569.172,0.0
55273.0,STARLINK-5291,PAYLOAD,2023-11-13 21:30:54,14.98571147,0.0002876,70.0007,19.562,272.6337,87.4493,-0.0038776,-0.00046343,0.0,0 STARLINK-5291,1 55273U 23010E   23317.89646056 -.00046343  00000-0 -38776-2 0  9993,2 55273  70.0007  19.5620 0002876 272.6337  87.4493 14.98571147 45948,6949.447,96.092,573.311,569.314,0.0
55273.0,STARLINK-5291,PAYLOAD,2023-11-14 03:55:27,14.98399862,0.0002885,70.0005,18.8887,264.4026,95.6804,-0.0011427,-0.00013725,0.0,0 STARLINK-5291,1 55273U 23010E   23318.16351216 -.00013725  00000-0 -11427-2 0  9997,2 55273  70.0005  18.8887 0002885 264.4026  95.6804 14.98399862 45676,6949.977,96.103,573.847,569.837,0.0
55273.0,STARLINK-5291,PAYLOAD,2023-11-14 11:56:07,14.98348567,0.0003078,69.9997,18.0449,268.8172,91.2634,-0.00033725,-4.117e-05,0.0,0 STARLINK-5291,1 55273U 23010E   23318.49731031 -.00004117  00000-0 -33725-3 0  9991,2 55273  69.9997  18.0449 0003078 268.8172  91.2634 14.98348567 45729,6950.135,96.106,574.14,569.861,0.0
55273.0,STARLINK-5291,PAYLOAD,2023-11-14 13:32:15,14.98355841,0.00027,69.9997,17.8777,261.7188,98.3665,-0.00045716,-5.547e-05,0.0,0 STARLINK-5291,1 55273U 23010E   23318.56406819 -.00005547  00000-0 -45716-3 0  9993,2 55273  69.9997  17.8777 0002700 261.7188  98.3665 14.98355841 46041,6950.113,96.105,573.855,570.101,0.0
